{
  "norad_id": 65015,
  "name": "STARLINK-34617",
  "history": [
    {
      "epoch": "2026-03-28T17:51:05.899392",
      "apogee_km": 476.1070565171476,
      "perigee_km": 474.2759842030782,
      "latitude_deg": -28.809896432898643,
      "longitude_deg": 32.9065548798535,
      "semi_major_axis_km": 6853.328520360113,
      "eccentricity": 0.00013359,
      "inclination_deg": 53.1585,
      "raan_deg": 205.9474,
      "arg_perigee_deg": 71.3508,
      "mean_anomaly_deg": 288.7637,
      "mean_motion_rev_day": 15.30207887
    }
  ]
}